GOES 1 (SMS-C)          
1 08366U 75100A   26064.27405066  .00000003  00000+0  00000+0 0  9995
2 08366   4.8724 278.7400 0005408 359.9845 222.1868  1.00237608184029
GOES 2                  
1 10061U 77048A   26064.03519626 -.00000250  00000+0  00000+0 0  9990
2 10061   6.6677 294.2147 0013894  47.7129 307.1623  0.99396939 45239
GOES 3                  
1 10953U 78062A   26063.58169849 -.00000283  00000+0  00000+0 0  9990
2 10953   7.1384 300.0473 0002800 355.1966 234.3689  0.99365958127497
GOES 4                  
1 11964U 80074A   26064.07324308 -.00000230  00000+0  00000+0 0  9999
2 11964   8.2108 303.7266 0032112 103.0582  87.5037  0.99230818126400
GOES 5                  
1 12472U 81049A   26064.20905036 -.00000200  00000+0  00000+0 0  9992
2 12472   9.5445 316.3375 0004655 337.1778 215.8746  1.00211327121801
GOES 6                  
1 14050U 83041A   26064.27621734 -.00000075  00000+0  00000+0 0  9997
2 14050  10.3561 321.8949 0002343 307.0066 243.8951  1.00217783214972
GOES 7                  
1 17561U 87022A   26064.14767005  .00000078  00000+0  00000+0 0  9990
2 17561  13.0201 338.3692 0003957  14.7932  88.6766  0.99894951125927
GOES 8                  
1 23051U 94022A   26063.68030927 -.00000257  00000+0  00000+0 0  9993
2 23051  14.3407  14.4681 0005010  14.3088 185.1946  0.98908236123090
GOES 9                  
1 23581U 95025A   26063.30044841 -.00000086  00000+0  00000+0 0  9994
2 23581  13.8697  15.3139 0003639 210.9793 324.3309  0.98798677111726
GOES 10                 
1 24786U 97019A   26063.84276030 -.00000074  00000+0  00000+0 0  9990
2 24786  13.0045  21.8442 0031077 239.2468 299.1363  0.99122098105037
GOES 11                 
1 26352U 00022A   26062.92834979 -.00000124  00000+0  00000+0 0  9995
2 26352  11.5793  47.4483 0005945 254.4886 120.1146  0.99041062 51435
GOES 12                 
1 26871U 01031A   26064.28549071 -.00000184  00000+0  00000+0 0  9995
2 26871  11.9964  38.1353 0008751 296.0514 228.2756  0.99136905 89738
EWS-G1 (GOES 13)        
1 29155U 06018A   26064.20385034  .00000043  00000+0  00000+0 0  9995
2 29155   4.2630  77.6926 0062008 273.1645 130.0433  0.98785109 42221
GOES 14                 
1 35491U 09033A   26064.26651062  .00000119  00000+0  00000+0 0  9992
2 35491   1.4211  84.4101 0002301 300.2805  75.6316  1.00124871  5552
EWS-G2 (GOES 15)        
1 36411U 10008A   26064.18725389  .00000013  00000+0  00000+0 0  9997
2 36411   1.0108  85.1296 0001932  19.6467 189.0339  1.00269479 58594
GOES 16                 
1 41866U 16071A   26064.27725734 -.00000099  00000+0  00000+0 0  9992
2 41866   0.1401  89.6705 0002464 221.2947 207.1543  1.00271815 34061
GOES 17                 
1 43226U 18022A   26064.20896369 -.00000191  00000+0  00000+0 0  9991
2 43226   0.6702  87.5386 0002204 223.0782 198.0411  1.00270294 29384
