[{"OBJECT_NAME":"GOES 1 (SMS-C)","OBJECT_ID":"1975-100A","EPOCH":"2026-03-05T06:34:37.977024","MEAN_MOTION":1.00237608,"ECCENTRICITY":0.00054087,"INCLINATION":4.8724,"RA_OF_ASC_NODE":278.74,"ARG_OF_PERICENTER":359.9845,"MEAN_ANOMALY":222.1868,"EPHEMERIS_TYPE":0,"CLASSIFICATION_TYPE":"U","NORAD_CAT_ID":8366,"ELEMENT_SET_NO":999,"REV_AT_EPOCH":18402,"BSTAR":0,"MEAN_MOTION_DOT":3.0e-8,"MEAN_MOTION_DDOT":0},{"OBJECT_NAME":"GOES 2","OBJECT_ID":"1977-048A","EPOCH":"2026-03-05T00:50:40.956864","MEAN_MOTION":0.99396939,"ECCENTRICITY":0.00138945,"INCLINATION":6.6677,"RA_OF_ASC_NODE":294.2147,"ARG_OF_PERICENTER":47.7129,"MEAN_ANOMALY":307.1623,"EPHEMERIS_TYPE":0,"CLASSIFICATION_TYPE":"U","NORAD_CAT_ID":10061,"ELEMENT_SET_NO":999,"REV_AT_EPOCH":4523,"BSTAR":0,"MEAN_MOTION_DOT":-2.5e-6,"MEAN_MOTION_DDOT":0},{"OBJECT_NAME":"GOES 3","OBJECT_ID":"1978-062A","EPOCH":"2026-03-04T13:57:38.749536","MEAN_MOTION":0.99365958,"ECCENTRICITY":0.00028008,"INCLINATION":7.1384,"RA_OF_ASC_NODE":300.0473,"ARG_OF_PERICENTER":355.1966,"MEAN_ANOMALY":234.3689,"EPHEMERIS_TYPE":0,"CLASSIFICATION_TYPE":"U","NORAD_CAT_ID":10953,"ELEMENT_SET_NO":999,"REV_AT_EPOCH":12749,"BSTAR":0,"MEAN_MOTION_DOT":-2.83e-6,"MEAN_MOTION_DDOT":0},{"OBJECT_NAME":"GOES 4","OBJECT_ID":"1980-074A","EPOCH":"2026-03-05T01:45:28.202112","MEAN_MOTION":0.99230818,"ECCENTRICITY":0.00321127,"INCLINATION":8.2108,"RA_OF_ASC_NODE":303.7266,"ARG_OF_PERICENTER":103.0582,"MEAN_ANOMALY":87.5037,"EPHEMERIS_TYPE":0,"CLASSIFICATION_TYPE":"U","NORAD_CAT_ID":11964,"ELEMENT_SET_NO":999,"REV_AT_EPOCH":12640,"BSTAR":0,"MEAN_MOTION_DOT":-2.3e-6,"MEAN_MOTION_DDOT":0},{"OBJECT_NAME":"GOES 5","OBJECT_ID":"1981-049A","EPOCH":"2026-03-05T05:01:01.951104","MEAN_MOTION":1.00211327,"ECCENTRICITY":0.00046559,"INCLINATION":9.5445,"RA_OF_ASC_NODE":316.3375,"ARG_OF_PERICENTER":337.1778,"MEAN_ANOMALY":215.8746,"EPHEMERIS_TYPE":0,"CLASSIFICATION_TYPE":"U","NORAD_CAT_ID":12472,"ELEMENT_SET_NO":999,"REV_AT_EPOCH":12180,"BSTAR":0,"MEAN_MOTION_DOT":-2.0e-6,"MEAN_MOTION_DDOT":0},{"OBJECT_NAME":"GOES 6","OBJECT_ID":"1983-041A","EPOCH":"2026-03-05T06:37:45.178176","MEAN_MOTION":1.00217783,"ECCENTRICITY":0.00023434,"INCLINATION":10.3561,"RA_OF_ASC_NODE":321.8949,"ARG_OF_PERICENTER":307.0066,"MEAN_ANOMALY":243.8951,"EPHEMERIS_TYPE":0,"CLASSIFICATION_TYPE":"U","NORAD_CAT_ID":14050,"ELEMENT_SET_NO":999,"REV_AT_EPOCH":21497,"BSTAR":0,"MEAN_MOTION_DOT":-7.5e-7,"MEAN_MOTION_DDOT":0},{"OBJECT_NAME":"GOES 7","OBJECT_ID":"1987-022A","EPOCH":"2026-03-05T03:32:38.692320","MEAN_MOTION":0.99894951,"ECCENTRICITY":0.00039576,"INCLINATION":13.0201,"RA_OF_ASC_NODE":338.3692,"ARG_OF_PERICENTER":14.7932,"MEAN_ANOMALY":88.6766,"EPHEMERIS_TYPE":0,"CLASSIFICATION_TYPE":"U","NORAD_CAT_ID":17561,"ELEMENT_SET_NO":999,"REV_AT_EPOCH":12592,"BSTAR":0,"MEAN_MOTION_DOT":7.8e-7,"MEAN_MOTION_DDOT":0},{"OBJECT_NAME":"GOES 8","OBJECT_ID":"1994-022A","EPOCH":"2026-03-04T16:19:38.720928","MEAN_MOTION":0.98908236,"ECCENTRICITY":0.00050105,"INCLINATION":14.3407,"RA_OF_ASC_NODE":14.4681,"ARG_OF_PERICENTER":14.3088,"MEAN_ANOMALY":185.1946,"EPHEMERIS_TYPE":0,"CLASSIFICATION_TYPE":"U","NORAD_CAT_ID":23051,"ELEMENT_SET_NO":999,"REV_AT_EPOCH":12309,"BSTAR":0,"MEAN_MOTION_DOT":-2.57e-6,"MEAN_MOTION_DDOT":0},{"OBJECT_NAME":"GOES 9","OBJECT_ID":"1995-025A","EPOCH":"2026-03-04T07:12:38.742624","MEAN_MOTION":0.98798677,"ECCENTRICITY":0.00036399,"INCLINATION":13.8697,"RA_OF_ASC_NODE":15.3139,"ARG_OF_PERICENTER":210.9793,"MEAN_ANOMALY":324.3309,"EPHEMERIS_TYPE":0,"CLASSIFICATION_TYPE":"U","NORAD_CAT_ID":23581,"ELEMENT_SET_NO":999,"REV_AT_EPOCH":11172,"BSTAR":0,"MEAN_MOTION_DOT":-8.6e-7,"MEAN_MOTION_DDOT":0},{"OBJECT_NAME":"GOES 10","OBJECT_ID":"1997-019A","EPOCH":"2026-03-04T20:13:34.489920","MEAN_MOTION":0.99122098,"ECCENTRICITY":0.0031077,"INCLINATION":13.0045,"RA_OF_ASC_NODE":21.8442,"ARG_OF_PERICENTER":239.2468,"MEAN_ANOMALY":299.1363,"EPHEMERIS_TYPE":0,"CLASSIFICATION_TYPE":"U","NORAD_CAT_ID":24786,"ELEMENT_SET_NO":999,"REV_AT_EPOCH":10503,"BSTAR":0,"MEAN_MOTION_DOT":-7.4e-7,"MEAN_MOTION_DDOT":0},{"OBJECT_NAME":"GOES 11","OBJECT_ID":"2000-022A","EPOCH":"2026-03-03T22:16:49.421856","MEAN_MOTION":0.99041062,"ECCENTRICITY":0.0005945,"INCLINATION":11.5793,"RA_OF_ASC_NODE":47.4483,"ARG_OF_PERICENTER":254.4886,"MEAN_ANOMALY":120.1146,"EPHEMERIS_TYPE":0,"CLASSIFICATION_TYPE":"U","NORAD_CAT_ID":26352,"ELEMENT_SET_NO":999,"REV_AT_EPOCH":5143,"BSTAR":0,"MEAN_MOTION_DOT":-1.24e-6,"MEAN_MOTION_DDOT":0},{"OBJECT_NAME":"GOES 12","OBJECT_ID":"2001-031A","EPOCH":"2026-03-05T06:51:06.397344","MEAN_MOTION":0.99136905,"ECCENTRICITY":0.00087517,"INCLINATION":11.9964,"RA_OF_ASC_NODE":38.1353,"ARG_OF_PERICENTER":296.0514,"MEAN_ANOMALY":228.2756,"EPHEMERIS_TYPE":0,"CLASSIFICATION_TYPE":"U","NORAD_CAT_ID":26871,"ELEMENT_SET_NO":999,"REV_AT_EPOCH":8973,"BSTAR":0,"MEAN_MOTION_DOT":-1.84e-6,"MEAN_MOTION_DDOT":0},{"OBJECT_NAME":"EWS-G1 (GOES 13)","OBJECT_ID":"2006-018A","EPOCH":"2026-03-05T04:53:32.669376","MEAN_MOTION":0.98785109,"ECCENTRICITY":0.0062008,"INCLINATION":4.263,"RA_OF_ASC_NODE":77.6926,"ARG_OF_PERICENTER":273.1645,"MEAN_ANOMALY":130.0433,"EPHEMERIS_TYPE":0,"CLASSIFICATION_TYPE":"U","NORAD_CAT_ID":29155,"ELEMENT_SET_NO":999,"REV_AT_EPOCH":4222,"BSTAR":0,"MEAN_MOTION_DOT":4.3e-7,"MEAN_MOTION_DDOT":0},{"OBJECT_NAME":"GOES 14","OBJECT_ID":"2009-033A","EPOCH":"2026-03-05T06:23:46.517568","MEAN_MOTION":1.00124871,"ECCENTRICITY":0.00023017,"INCLINATION":1.4211,"RA_OF_ASC_NODE":84.4101,"ARG_OF_PERICENTER":300.2805,"MEAN_ANOMALY":75.6316,"EPHEMERIS_TYPE":0,"CLASSIFICATION_TYPE":"U","NORAD_CAT_ID":35491,"ELEMENT_SET_NO":999,"REV_AT_EPOCH":555,"BSTAR":0,"MEAN_MOTION_DOT":1.19e-6,"MEAN_MOTION_DDOT":0},{"OBJECT_NAME":"EWS-G2 (GOES 15)","OBJECT_ID":"2010-008A","EPOCH":"2026-03-05T04:29:38.736096","MEAN_MOTION":1.00269479,"ECCENTRICITY":0.0001932,"INCLINATION":1.0108,"RA_OF_ASC_NODE":85.1296,"ARG_OF_PERICENTER":19.6467,"MEAN_ANOMALY":189.0339,"EPHEMERIS_TYPE":0,"CLASSIFICATION_TYPE":"U","NORAD_CAT_ID":36411,"ELEMENT_SET_NO":999,"REV_AT_EPOCH":5859,"BSTAR":0,"MEAN_MOTION_DOT":1.3e-7,"MEAN_MOTION_DDOT":0},{"OBJECT_NAME":"GOES 16","OBJECT_ID":"2016-071A","EPOCH":"2026-03-05T06:39:15.034176","MEAN_MOTION":1.00271815,"ECCENTRICITY":0.00024644,"INCLINATION":0.1401,"RA_OF_ASC_NODE":89.6705,"ARG_OF_PERICENTER":221.2947,"MEAN_ANOMALY":207.1543,"EPHEMERIS_TYPE":0,"CLASSIFICATION_TYPE":"U","NORAD_CAT_ID":41866,"ELEMENT_SET_NO":999,"REV_AT_EPOCH":3406,"BSTAR":0,"MEAN_MOTION_DOT":-9.9e-7,"MEAN_MOTION_DDOT":0},{"OBJECT_NAME":"GOES 17","OBJECT_ID":"2018-022A","EPOCH":"2026-03-05T05:00:54.462816","MEAN_MOTION":1.00270294,"ECCENTRICITY":0.00022041,"INCLINATION":0.6702,"RA_OF_ASC_NODE":87.5386,"ARG_OF_PERICENTER":223.0782,"MEAN_ANOMALY":198.0411,"EPHEMERIS_TYPE":0,"CLASSIFICATION_TYPE":"U","NORAD_CAT_ID":43226,"ELEMENT_SET_NO":999,"REV_AT_EPOCH":2938,"BSTAR":0,"MEAN_MOTION_DOT":-1.91e-6,"MEAN_MOTION_DDOT":0}]
